{
 "generated_at": "2026-06-27T07:50:14Z",
 "sources": [
  {
   "name": "CelesTrak",
   "url": "https://celestrak.org/NORAD/elements/",
   "license": "frei verfügbar; Attribution. Ursprünglich USSPACECOM/Space-Track."
  },
  {
   "name": "GCAT (J. McDowell, planet4589.org)",
   "url": "https://planet4589.org/space/gcat/",
   "license": "CC-BY 4.0"
  }
 ],
 "satellites": [
  {
   "norad": 60453,
   "name": "LEGION 4",
   "intl": "2024-146B",
   "group": "resource",
   "gcat": {
    "class": "B",
    "category": "IMG",
    "owner": "MAXARI",
    "state": "US"
   },
   "omm": {
    "OBJECT_NAME": "LEGION 4",
    "OBJECT_ID": "2024-146B",
    "EPOCH": "2026-06-26T18:06:06.025824",
    "MEAN_MOTION": 15.16101639,
    "ECCENTRICITY": 0.00126907,
    "INCLINATION": 45.0018,
    "RA_OF_ASC_NODE": 71.1534,
    "ARG_OF_PERICENTER": 0.2751,
    "MEAN_ANOMALY": 359.8132,
    "EPHEMERIS_TYPE": 0,
    "CLASSIFICATION_TYPE": "U",
    "NORAD_CAT_ID": 60453,
    "ELEMENT_SET_NO": 999,
    "REV_AT_EPOCH": 10232,
    "BSTAR": 0.00021412704,
    "MEAN_MOTION_DOT": 0.00003937,
    "MEAN_MOTION_DDOT": 0
   }
  },
  {
   "norad": 51284,
   "name": "LUDI TANCE 1-01A (L-SAR 01A)",
   "intl": "2022-007A",
   "group": "sar",
   "gcat": {
    "class": "C",
    "category": "IMG-R",
    "owner": "SAST",
    "state": "CN"
   },
   "omm": {
    "OBJECT_NAME": "LUDI TANCE 1-01A (L-SAR 01A)",
    "OBJECT_ID": "2022-007A",
    "EPOCH": "2026-06-26T23:54:37.628640",
    "MEAN_MOTION": 14.88418123,
    "ECCENTRICITY": 0.00016108,
    "INCLINATION": 97.8098,
    "RA_OF_ASC_NODE": 185.2767,
    "ARG_OF_PERICENTER": 90.9546,
    "MEAN_ANOMALY": 269.1855,
    "EPHEMERIS_TYPE": 0,
    "CLASSIFICATION_TYPE": "U",
    "NORAD_CAT_ID": 51284,
    "ELEMENT_SET_NO": 999,
    "REV_AT_EPOCH": 23993,
    "BSTAR": 0.000069849847,
    "MEAN_MOTION_DOT": 0.00000593,
    "MEAN_MOTION_DDOT": 0
   }
  },
  {
   "norad": 51822,
   "name": "LUDI TANCE 1-01B (L-SAR 01B)",
   "intl": "2022-018A",
   "group": "sar",
   "gcat": {
    "class": "C",
    "category": "IMG-R",
    "owner": "SAST",
    "state": "CN"
   },
   "omm": {
    "OBJECT_NAME": "LUDI TANCE 1-01B (L-SAR 01B)",
    "OBJECT_ID": "2022-018A",
    "EPOCH": "2026-06-26T23:06:12.145248",
    "MEAN_MOTION": 14.88409849,
    "ECCENTRICITY": 0.00015998,
    "INCLINATION": 97.8103,
    "RA_OF_ASC_NODE": 185.2407,
    "ARG_OF_PERICENTER": 91.1699,
    "MEAN_ANOMALY": 268.9701,
    "EPHEMERIS_TYPE": 0,
    "CLASSIFICATION_TYPE": "U",
    "NORAD_CAT_ID": 51822,
    "ELEMENT_SET_NO": 999,
    "REV_AT_EPOCH": 23516,
    "BSTAR": 0.000073621877,
    "MEAN_MOTION_DOT": 0.00000628,
    "MEAN_MOTION_DDOT": 0
   }
  },
  {
   "norad": 57624,
   "name": "LUDI TANCE-4 01A",
   "intl": "2023-120A",
   "group": "sar",
   "gcat": {
    "class": "D",
    "category": "IMG-R",
    "owner": "CNSA",
    "state": "CN"
   },
   "omm": {
    "OBJECT_NAME": "LUDI TANCE-4 01A",
    "OBJECT_ID": "2023-120A",
    "EPOCH": "2026-06-26T01:00:06.780960",
    "MEAN_MOTION": 1.00268051,
    "ECCENTRICITY": 0.00013548,
    "INCLINATION": 15.0986,
    "RA_OF_ASC_NODE": 193.7428,
    "ARG_OF_PERICENTER": 22.0692,
    "MEAN_ANOMALY": 162.9814,
    "EPHEMERIS_TYPE": 0,
    "CLASSIFICATION_TYPE": "U",
    "NORAD_CAT_ID": 57624,
    "ELEMENT_SET_NO": 999,
    "REV_AT_EPOCH": 1063,
    "BSTAR": 0,
    "MEAN_MOTION_DOT": -0.00000154,
    "MEAN_MOTION_DDOT": 0
   }
  },
  {
   "norad": 27004,
   "name": "MAROC-TUBSAT",
   "intl": "2001-056D",
   "group": "resource",
   "gcat": {
    "class": null,
    "category": null,
    "owner": null,
    "state": null
   },
   "omm": {
    "OBJECT_NAME": "MAROC-TUBSAT",
    "OBJECT_ID": "2001-056D",
    "EPOCH": "2026-06-26T22:52:37.946208",
    "MEAN_MOTION": 13.70262858,
    "ECCENTRICITY": 0.00205533,
    "INCLINATION": 99.8086,
    "RA_OF_ASC_NODE": 354.997,
    "ARG_OF_PERICENTER": 117.0329,
    "MEAN_ANOMALY": 47.3009,
    "EPHEMERIS_TYPE": 0,
    "CLASSIFICATION_TYPE": "U",
    "NORAD_CAT_ID": 27004,
    "ELEMENT_SET_NO": 999,
    "REV_AT_EPOCH": 22752,
    "BSTAR": 0.000031720708,
    "MEAN_MOTION_DOT": -1.9e-7,
    "MEAN_MOTION_DDOT": 0
   }
  },
  {
   "norad": 40069,
   "name": "METEOR-M 2",
   "intl": "2014-037A",
   "group": "weather",
   "gcat": {
    "class": "C",
    "category": "MET",
    "owner": "RGMS/VNIIEMI",
    "state": "RU"
   },
   "omm": {
    "OBJECT_NAME": "METEOR-M 2",
    "OBJECT_ID": "2014-037A",
    "EPOCH": "2026-06-26T22:18:55.503648",
    "MEAN_MOTION": 14.21463404,
    "ECCENTRICITY": 0.00062657,
    "INCLINATION": 98.5111,
    "RA_OF_ASC_NODE": 153.323,
    "ARG_OF_PERICENTER": 19.8701,
    "MEAN_ANOMALY": 340.2719,
    "EPHEMERIS_TYPE": 0,
    "CLASSIFICATION_TYPE": "U",
    "NORAD_CAT_ID": 40069,
    "ELEMENT_SET_NO": 999,
    "REV_AT_EPOCH": 62070,
    "BSTAR": -7.31037e-7,
    "MEAN_MOTION_DOT": -4.4e-7,
    "MEAN_MOTION_DDOT": 0
   }
  },
  {
   "norad": 44387,
   "name": "METEOR-M2 2",
   "intl": "2019-038A",
   "group": "weather",
   "gcat": {
    "class": "C",
    "category": "MET",
    "owner": "RGMS/VNIIEMI",
    "state": "RU"
   },
   "omm": {
    "OBJECT_NAME": "METEOR-M2 2",
    "OBJECT_ID": "2019-038A",
    "EPOCH": "2026-06-26T22:31:37.956864",
    "MEAN_MOTION": 14.24368924,
    "ECCENTRICITY": 0.0001644,
    "INCLINATION": 98.9144,
    "RA_OF_ASC_NODE": 165.3677,
    "ARG_OF_PERICENTER": 34.853,
    "MEAN_ANOMALY": 325.2756,
    "EPHEMERIS_TYPE": 0,
    "CLASSIFICATION_TYPE": "U",
    "NORAD_CAT_ID": 44387,
    "ELEMENT_SET_NO": 999,
    "REV_AT_EPOCH": 36268,
    "BSTAR": 0.00011104984,
    "MEAN_MOTION_DOT": 0.00000211,
    "MEAN_MOTION_DDOT": 0
   }
  },
  {
   "norad": 57166,
   "name": "METEOR-M2 3",
   "intl": "2023-091A",
   "group": "weather",
   "gcat": {
    "class": "C",
    "category": "MET",
    "owner": "RGMS/VNIIEMI",
    "state": "RU"
   },
   "omm": {
    "OBJECT_NAME": "METEOR-M2 3",
    "OBJECT_ID": "2023-091A",
    "EPOCH": "2026-06-27T00:07:51.153888",
    "MEAN_MOTION": 14.24047533,
    "ECCENTRICITY": 0.00048279,
    "INCLINATION": 98.6079,
    "RA_OF_ASC_NODE": 232.7828,
    "ARG_OF_PERICENTER": 131.3896,
    "MEAN_ANOMALY": 228.7698,
    "EPHEMERIS_TYPE": 0,
    "CLASSIFICATION_TYPE": "U",
    "NORAD_CAT_ID": 57166,
    "ELEMENT_SET_NO": 999,
    "REV_AT_EPOCH": 15591,
    "BSTAR": 0.00002224064,
    "MEAN_MOTION_DOT": 8e-8,
    "MEAN_MOTION_DDOT": 0
   }
  },
  {
   "norad": 59051,
   "name": "METEOR-M2 4",
   "intl": "2024-039A",
   "group": "weather",
   "gcat": {
    "class": "C",
    "category": "MET",
    "owner": "RGMS/VNIIEMI",
    "state": "RU"
   },
   "omm": {
    "OBJECT_NAME": "METEOR-M2 4",
    "OBJECT_ID": "2024-039A",
    "EPOCH": "2026-06-26T23:03:48.117312",
    "MEAN_MOTION": 14.22430463,
    "ECCENTRICITY": 0.00078057,
    "INCLINATION": 98.7014,
    "RA_OF_ASC_NODE": 137.1363,
    "ARG_OF_PERICENTER": 134.746,
    "MEAN_ANOMALY": 225.4354,
    "EPHEMERIS_TYPE": 0,
    "CLASSIFICATION_TYPE": "U",
    "NORAD_CAT_ID": 59051,
    "ELEMENT_SET_NO": 999,
    "REV_AT_EPOCH": 12065,
    "BSTAR": 0.000019140114,
    "MEAN_MOTION_DOT": -1e-8,
    "MEAN_MOTION_DDOT": 0
   }
  },
  {
   "norad": 38552,
   "name": "METEOSAT-10 (MSG-3)",
   "intl": "2012-035B",
   "group": "weather",
   "gcat": {
    "class": "C",
    "category": "MET",
    "owner": "EUMET",
    "state": "I-EUM"
   },
   "omm": {
    "OBJECT_NAME": "METEOSAT-10 (MSG-3)",
    "OBJECT_ID": "2012-035B",
    "EPOCH": "2026-06-26T07:25:20.337024",
    "MEAN_MOTION": 1.00268518,
    "ECCENTRICITY": 0.0001742,
    "INCLINATION": 4.693,
    "RA_OF_ASC_NODE": 60.9813,
    "ARG_OF_PERICENTER": 8.4001,
    "MEAN_ANOMALY": 316.5762,
    "EPHEMERIS_TYPE": 0,
    "CLASSIFICATION_TYPE": "U",
    "NORAD_CAT_ID": 38552,
    "ELEMENT_SET_NO": 999,
    "REV_AT_EPOCH": 5094,
    "BSTAR": 0,
    "MEAN_MOTION_DOT": 0,
    "MEAN_MOTION_DDOT": 0
   }
  }
 ]
}
