MAROC-TUBSAT            
1 27004U 01056D   26177.95321697 -.00000019  00000+0  31721-4 0  9998
2 27004  99.8086 354.9970 0020553 117.0329  47.3009 13.70262858227523
METEOSAT-10 (MSG-3)     
1 38552U 12035B   26177.30926316  .00000000  00000+0  00000+0 0  9995
2 38552   4.6930  60.9813 0001742   8.4001 316.5762  1.00268518 50940
METEOR-M 2              
1 40069U 14037A   26177.92980907 -.00000044  00000+0 -73104-6 0  9991
2 40069  98.5111 153.3230 0006265  19.8701 340.2719 14.21463404620708
METEOR-M2 2             
1 44387U 19038A   26177.93863376  .00000211  00000+0  11105-3 0  9999
2 44387  98.9144 165.3677 0001644  34.8530 325.2756 14.24368924362684
LUDI TANCE 1-01A (L-SA*)
1 51284U 22007A   26177.99626885  .00000593  00000+0  69850-4 0  9995
2 51284  97.8098 185.2767 0001610  90.9546 269.1855 14.88418123239932
LUDI TANCE 1-01B (L-SA*)
1 51822U 22018A   26177.96264057  .00000628  00000+0  73622-4 0  9992
2 51822  97.8103 185.2407 0001599  91.1699 268.9701 14.88409849235169
METEOR-M2 3             
1 57166U 23091A   26178.00545317  .00000008  00000+0  22241-4 0  9991
2 57166  98.6079 232.7828 0004827 131.3896 228.7698 14.24047533155916
LUDI TANCE-4 01A        
1 57624U 23120A   26177.04174515 -.00000154  00000+0  00000+0 0  9991
2 57624  15.0986 193.7428 0001354  22.0692 162.9814  1.00268051 10637
METEOR-M2 4             
1 59051U 24039A   26177.96097358 -.00000001  00000+0  19140-4 0  9998
2 59051  98.7014 137.1363 0007805 134.7460 225.4354 14.22430463120658
LEGION 4                
1 60453U 24146B   26177.75423641  .00003937  00000+0  21413-3 0  9995
2 60453  45.0018  71.1534 0012690   0.2751 359.8132 15.16101639102324
